OBJECT_NAME,OBJECT_ID,EPOCH,MEAN_MOTION,ECCENTRICITY,INCLINATION,RA_OF_ASC_NODE,ARG_OF_PERICENTER,MEAN_ANOMALY,EPHEMERIS_TYPE,CLASSIFICATION_TYPE,NORAD_CAT_ID,ELEMENT_SET_NO,REV_AT_EPOCH,BSTAR,MEAN_MOTION_DOT,MEAN_MOTION_DDOT
GAOFEN-11 01,2018-063A,2026-06-28T22:42:38.484000,15.55615664,.00021008,97.1294,246.7930,295.4422,64.6616,0,U,43585,999,44217,.14782637E-3,.10038E-3,0
ICESAT-2,2018-070A,2026-06-28T22:35:16.781280,15.28231038,.0006221,92.0089,294.1544,92.8347,267.3615,0,U,43613,999,43425,.32822039E-3,.9031E-4,0
HYSIS,2018-096A,2026-06-28T23:40:12.859680,14.78638163,.00018433,97.9841,246.6415,91.2809,268.8614,0,U,43719,999,40916,.77643842E-4,.517E-5,0
KAZSTSAT,2018-099AB,2026-06-28T15:20:06.333216,14.99905504,.00085121,97.4292,211.0482,38.0581,322.1243,0,U,43783,999,41302,.15856884E-3,.1912E-4,0
SAUDISAT 5A,2018-102A,2026-06-28T22:50:30.737760,15.28166469,.00112862,97.3067,241.3062,93.5224,266.7307,0,U,43831,999,41747,.18788809E-3,.5093E-4,0
SAUDISAT 5B,2018-102C,2026-06-28T23:14:50.076096,15.28416976,.0012004,97.3176,244.4138,95.1431,265.1179,0,U,43833,999,41759,.18220043E-3,.4976E-4,0
GAOFEN-10R,2019-066A,2026-06-28T23:03:56.515392,14.83024633,.00071762,98.0502,133.6262,94.7069,265.4964,0,U,44622,999,36412,.14274178E-3,.1106E-4,0
CARTOSAT-3,2019-081A,2026-06-28T22:43:29.136864,15.19218210,.00134188,97.4309,241.6240,110.6121,249.6555,0,U,44804,999,36525,.15090293E-3,.3116E-4,0
GAOFEN-12 01,2019-082A,2026-06-28T23:24:13.343616,14.80467702,.00018233,97.8101,186.0434,57.9561,302.1829,0,U,44819,999,35583,.56183742E-4,.379E-5,0
CSG-1,2019-092A,2026-06-29T01:38:12.977664,14.82153929,.000141,97.8889,3.4989,90.3876,269.7499,0,U,44873,999,35323,.71588E-4,.518E-5,0
NEMO-HD,2020-061F,2026-06-28T23:37:39.040032,15.44827078,.00016964,97.1919,241.8191,75.0663,285.0774,0,U,46277,999,32380,.22281805E-3,.10359E-3,0
SENTINEL-6A,2020-086A,2026-06-28T22:52:21.424800,12.80929913,.00078373,66.0410,110.6152,269.9813,90.0304,0,U,46984,999,26183,-.96528022E-4,-.83E-6,0
CAS500-1,2021-022A,2026-06-28T23:27:15.880896,15.20204269,.00036914,97.3894,74.9919,236.7260,123.3622,0,U,47932,999,29255,.26910368E-3,.5764E-4,0
GAOFEN-12 02,2021-026A,2026-06-28T23:41:58.209792,14.80304719,.00045919,97.9923,178.1199,178.7186,181.4039,0,U,48079,999,28350,.52033476E-4,.344E-5,0
PLEIADES NEO 3,2021-034A,2026-06-28T22:28:13.490400,14.81669938,.00013524,97.8940,254.5335,88.7433,271.3934,0,U,48268,999,27939,-.66574232E-4,-.576E-5,0
PLEIADES NEO 4,2021-073E,2026-06-28T23:16:49.703808,14.81673670,.00013683,97.8938,254.5631,90.1463,269.9907,0,U,49070,999,26311,.16370213E-3,.1236E-4,0
LANDSAT 9,2021-088A,2026-06-28T22:32:18.051648,14.57104752,.00012422,98.2278,249.9742,85.6427,274.4913,0,U,49260,999,25271,.79113659E-4,.311E-5,0
CSG-2,2022-008A,2026-06-28T23:12:22.608576,14.82152745,.00015615,97.8884,3.3939,84.9793,275.1598,0,U,51444,999,23833,.4069572E-4,.272E-5,0
GAOFEN-12 03,2022-069A,2026-06-28T22:50:41.010720,14.80051528,.00023802,97.8274,67.5256,91.4462,268.7023,0,U,52912,999,21635,.75285062E-4,.519E-5,0
SWOT,2022-173A,2026-06-28T22:06:24.323040,14.00170918,.00002972,77.6102,19.4690,83.5054,276.6131,0,U,54754,999,18079,.25757964E-4,.35E-6,0
GAOFEN-12 04,2023-123A,2026-06-28T23:14:18.962592,14.79747501,.00039593,97.9116,97.8142,82.7964,277.3697,0,U,57654,999,15437,.13009058E-3,.927E-5,0
PARS 1,2024-039Q,2026-06-28T23:11:27.148416,15.45966003,.00113964,97.4821,161.2588,77.0961,283.1560,0,U,59065,999,13046,.22361938E-3,.10829E-3,0
RESURS-P 4,2024-061A,2026-06-28T22:53:09.146976,15.32195908,.00028589,97.2754,127.6478,112.8809,247.2735,0,U,59371,999,12556,.97873241E-4,.2966E-4,0
LEGION 1,2024-081A,2026-06-28T21:42:26.132832,15.16743185,.00083915,97.5021,257.6364,336.0024,24.0816,0,U,59625,999,11931,.18981394E-3,.3658E-4,0
LEGION 2,2024-081B,2026-06-28T22:25:50.715264,15.16721791,.00099709,97.5021,257.7635,298.5368,61.4861,0,U,59626,999,11932,.17173572E-3,.3302E-4,0
LEGION 3,2024-146A,2026-06-28T20:37:53.787648,15.16036841,.00087194,45.0022,327.9519,236.8042,123.2001,0,U,60452,999,10379,.20607296E-3,.3769E-4,0
LEGION 4,2024-146B,2026-06-28T22:17:10.971744,15.16120945,.00123951,45.0022,59.4913,12.8607,347.2586,0,U,60453,999,10265,.2247209E-3,.4147E-4,0
SENTINEL-2C,2024-157A,2026-06-28T22:05:55.786848,14.30820822,.00009133,98.5692,254.5369,90.8997,269.2290,0,U,60989,999,9466,.54032552E-4,.98E-6,0
IONOSFERA-M 1,2024-199A,2026-06-28T22:31:01.688736,14.22756351,.00021696,98.7159,52.9856,94.7579,265.3847,0,U,61735,999,12937,.46879768E-4,.61E-6,0
