GAOFEN-11 01            
1 43585U 18063A   26179.94627875  .00010038  00000+0  14783-3 0  9993
2 43585  97.1294 246.7930 0002100 295.4422  64.6616 15.55615664442172
ICESAT-2                
1 43613U 18070A   26179.94116645  .00009031  00000+0  32822-3 0  9996
2 43613  92.0089 294.1544 0006221  92.8347 267.3615 15.28231038434251
HYSIS                   
1 43719U 18096A   26179.98625995  .00000517  00000+0  77644-4 0  9990
2 43719  97.9841 246.6415 0001843  91.2809 268.8614 14.78638163409169
KAZSTSAT                
1 43783U 18099AB  26179.63896219  .00001912  00000+0  15857-3 0  9992
2 43783  97.4292 211.0482 0008512  38.0581 322.1243 14.99905504413022
SAUDISAT 5A             
1 43831U 18102A   26179.95174465  .00005093  00000+0  18789-3 0  9999
2 43831  97.3067 241.3062 0011286  93.5224 266.7307 15.28166469417476
SAUDISAT 5B             
1 43833U 18102C   26179.96863514  .00004976  00000+0  18220-3 0  9991
2 43833  97.3176 244.4138 0012004  95.1431 265.1179 15.28416976417598
GAOFEN-10R              
1 44622U 19066A   26179.96107078  .00001106  00000+0  14274-3 0  9991
2 44622  98.0502 133.6262 0007176  94.7069 265.4964 14.83024633364129
CARTOSAT-3              
1 44804U 19081A   26179.94686501  .00003116  00000+0  15090-3 0  9991
2 44804  97.4309 241.6240 0013418 110.6121 249.6555 15.19218210365259
GAOFEN-12 01            
1 44819U 19082A   26179.97515444  .00000379  00000+0  56184-4 0  9996
2 44819  97.8101 186.0434 0001823  57.9561 302.1829 14.80467702355835
CSG-1                   
1 44873U 19092A   26180.06820576  .00000518  00000+0  71588-4 0  9994
2 44873  97.8889   3.4989 0001410  90.3876 269.7499 14.82153929353235
NEMO-HD                 
1 46277U 20061F   26179.98447963  .00010359  00000+0  22282-3 0  9996
2 46277  97.1919 241.8191 0001696  75.0663 285.0774 15.44827078323804
SENTINEL-6A             
1 46984U 20086A   26179.95302575 -.00000083  00000+0 -96528-4 0  9994
2 46984  66.0410 110.6152 0007837 269.9813  90.0304 12.80929913261839
CAS500-1                
1 47932U 21022A   26179.97726714  .00005764  00000+0  26910-3 0  9992
2 47932  97.3894  74.9919 0003691 236.7260 123.3622 15.20204269292554
GAOFEN-12 02            
1 48079U 21026A   26179.98747928  .00000344  00000+0  52033-4 0  9995
2 48079  97.9923 178.1199 0004591 178.7186 181.4039 14.80304719283503
PLEIADES NEO 3          
1 48268U 21034A   26179.93626725 -.00000576  00000+0 -66574-4 0  9994
2 48268  97.8940 254.5335 0001352  88.7433 271.3934 14.81669938279392
PLEIADES NEO 4          
1 49070U 21073E   26179.97001972  .00001236  00000+0  16370-3 0  9994
2 49070  97.8938 254.5631 0001368  90.1463 269.9907 14.81673670263111
LANDSAT 9               
1 49260U 21088A   26179.93909782  .00000311  00000+0  79114-4 0  9992
2 49260  98.2278 249.9742 0001242  85.6427 274.4913 14.57104752252710
CSG-2                   
1 51444U 22008A   26179.96692834  .00000272  00000+0  40696-4 0  9991
2 51444  97.8884   3.3939 0001561  84.9793 275.1598 14.82152745238339
GAOFEN-12 03            
1 52912U 22069A   26179.95186355  .00000519  00000+0  75285-4 0  9990
2 52912  97.8274  67.5256 0002380  91.4462 268.7023 14.80051528216357
SWOT                    
1 54754U 22173A   26179.92111485  .00000035  00000+0  25758-4 0  9994
2 54754  77.6102  19.4690 0000297  83.5054 276.6131 14.00170918180794
GAOFEN-12 04            
1 57654U 23123A   26179.96827503  .00000927  00000+0  13009-3 0  9996
2 57654  97.9116  97.8142 0003959  82.7964 277.3697 14.79747501154371
PARS 1                  
1 59065U 24039Q   26179.96628644  .00010829  00000+0  22362-3 0  9990
2 59065  97.4821 161.2588 0011396  77.0961 283.1560 15.45966003130467
RESURS-P 4              
1 59371U 24061A   26179.95357809  .00002966  00000+0  97873-4 0  9999
2 59371  97.2754 127.6478 0002858 112.8809 247.2735 15.32195908125560
LEGION 1                
1 59625U 24081A   26179.90446913  .00003658  00000+0  18981-3 0  9994
2 59625  97.5021 257.6364 0008391 336.0024  24.0816 15.16743185119312
LEGION 2                
1 59626U 24081B   26179.93461476  .00003302  00000+0  17174-3 0  9998
2 59626  97.5021 257.7635 0009970 298.5368  61.4861 15.16721791119327
LEGION 3                
1 60452U 24146A   26179.85965032  .00003769  00000+0  20607-3 0  9999
2 60452  45.0022 327.9519 0008719 236.8042 123.2001 15.16036841103792
LEGION 4                
1 60453U 24146B   26179.92859921  .00004147  00000+0  22472-3 0  9990
2 60453  45.0022  59.4913 0012395  12.8607 347.2586 15.16120945102651
SENTINEL-2C             
1 60989U 24157A   26179.92078457  .00000098  00000+0  54033-4 0  9993
2 60989  98.5692 254.5369 0000913  90.8997 269.2290 14.30820822 94667
IONOSFERA-M 1           
1 61735U 24199A   26179.93821399  .00000061  00000+0  46880-4 0  9992
2 61735  98.7159  52.9856 0002169  94.7579 265.3847 14.22756351129370
